PROMETHEUS 2-3          
1 41855U 16067H   25333.17963450  .01508726  15206-2  19677-2 0  9991
2 41855  98.0193 209.3834 0003741  95.2686 264.9021 16.07376993497358
CORVUS BC2              
1 42846U 17042X   25333.27104037  .00004634  00000+0  33383-3 0  9997
2 42846  97.3849 137.8851 0014872  76.9756 283.3130 15.04551897456988
CORVUS BC1              
1 42847U 17042Y   25332.69534987  .00004237  00000+0  30392-3 0  9990
2 42847  97.3864 138.0039 0013296  57.3321 302.9187 15.04778649456927
MAKERSAT 0              
1 43016U 17073D   25333.19111871  .00023331  00000+0  80098-3 0  9996
2 43016  97.4902 210.1268 0127132 259.4813  99.2079 15.22658390435936
SIRION PATHFINDER-2     
1 43759U 18099B   25333.11448824  .00006070  00000+0  35610-3 0  9993
2 43759  97.4563  21.9116 0007661 272.4247  87.6106 15.12086896382368
CORVUS BC4              
1 43767U 18099K   25333.06573924  .00006074  00000+0  37394-3 0  9991
2 43767  97.4379  16.8480 0008084 342.0147  18.0796 15.10331309382174
SPACEBEE-7              
1 43816U 18099BL  25333.15333166  .00089188  00000+0  13127-2 0  9992
2 43816  97.4739  48.1830 0004085 209.2191 150.8834 15.55126386383418
SHIELDS 1               
1 43850U 18104B   25333.27874246  .00105574  00000+0  53338-3 0  9996
2 43850  85.0067 273.5322 0006575 126.0946 234.0938 15.81256382388529
DUCHIFAT-3              
1 44854U 19089C   25332.32203368  .00655264  17348-3  18266-2 0  9993
2 44854  36.9285 322.4147 0010265 185.4514 174.6147 15.92614449329835
M2 PATHFINDER           
1 45727U 20037E   25333.06996889  .00004139  00000+0  30880-3 0  9996
2 45727  97.8127 157.1726 0012691 107.3045 252.9569 15.03367977295416
NETSAT-4                
1 46504U 20068U   25332.89033397  .00018297  00000+0  52165-3 0  9990
2 46504  97.8601 321.2459 0005485 334.5447  25.5524 15.36118146284946
NETSAT-3                
1 46505U 20068V   25332.52835578  .00018229  00000+0  54457-3 0  9993
2 46505  97.8617 319.4072 0005986 354.6236   5.4940 15.34646834284823
NETSAT-1                
1 46506U 20068W   25332.85524503  .00015030  00000+0  54320-3 0  9999
2 46506  97.8665 316.1798 0006389   9.8920 350.2443 15.28548999284637
NETSAT-2                
1 46507U 20068X   25333.21911265  .00020663  00000+0  58173-3 0  9994
2 46507  97.8604 321.0608 0005212  13.9130 346.2255 15.36487651284934
WILDTRACKCUBE-SIMBA     
1 47941U 21022K   25333.29670378  .00099186  00000+0  10514-2 0  9995
2 47941  97.4055 243.2789 0009839  55.8944 304.3247 15.63731632259989
GREENCUBE (IO-117)      
1 53109U 22080E   25333.03584071 -.00000003  00000+0  00000+0 0  9996
2 53109  70.1591   7.8483 0008967 330.3727  29.6424  6.42583165 79203
SITRO-AIS 5 (KATYS)     
1 57176U 23091L   25333.32392594  .00012938  00000+0  53533-3 0  9998
2 57176  97.5367  30.7684 0014172  87.5409 272.7450 15.23993709133845
SITRO-AIS 6 (CHIRKIN)   
1 57192U 23091AC  25333.22731558  .00007074  00000+0  30595-3 0  9990
2 57192  97.5368  30.5681 0014586  88.8521 271.4386 15.22670146133825
SITRO-AIS 8 (ANOKHIN)   
1 57193U 23091AD  25333.30999583  .00014703  00000+0  57561-3 0  9993
2 57193  97.5362  31.6614 0013428  85.8689 274.4083 15.25830366133905
SITRO-AIS 7 (FARTUSHNIY)
1 57194U 23091AE  25333.26331366  .00007034  00000+0  30598-3 0  9998
2 57194  97.5369  30.5091 0014432  89.4149 270.8741 15.22478214133826
SITRO-AIS 10 (BURDAEV)  
1 57199U 23091AK  25333.32684847  .00018478  00000+0  63344-3 0  9994
2 57199  97.5376  35.0239 0009276  69.1483 291.0750 15.30199112134113
SITRO-AIS 9 (SHCHUKIN)  
1 57201U 23091AM  25333.30366706  .00018024  00000+0  62331-3 0  9999
2 57201  97.5376  34.8509 0009306  69.6065 290.6174 15.29919859134109
SITRO-AIS 12 (SMIRENNIY)
1 57204U 23091AQ  25333.26190141  .00020023  00000+0  68705-3 0  9998
2 57204  97.5384  35.1684 0009088  63.9614 296.2561 15.30152874134114
SITRO-AIS 11 (SHEFFER)  
1 57208U 23091AU  25333.32011038  .00018914  00000+0  64424-3 0  9996
2 57208  97.5383  35.3732 0008980  63.6959 296.5203 15.30404574134137
SITRO-AIS 25            
1 59066U 24039R   25333.31912711  .00004369  00000+0  35833-3 0  9991
2 59066  95.3946  97.8862 0148815 306.4196  52.3381 14.91208712 94910
SITRO-AIS 26            
1 59067U 24039S   25333.29561375  .00004798  00000+0  39474-3 0  9996
2 59067  95.3947  97.8042 0149038 306.8668  51.8969 14.91041494 94905
SITRO-AIS 27            
1 59068U 24039T   25333.31853876  .00004380  00000+0  35796-3 0  9990
2 59068  95.3948  98.0065 0148232 305.8303  52.9224 14.91403863 94925
SITRO-AIS 28            
1 59071U 24039U   25333.30085878  .00005212  00000+0  42505-3 0  9993
2 59071  95.3948  98.0308 0148033 305.7617  52.9916 14.91446638 94920
GRBBETA                 
1 60237U 24128C   25333.06143249  .00004700  00000+0  33685-3 0  9998
2 60237  61.9894 197.3992 0056790  93.9322 266.8265 15.04552466 76132
OOV-CUBE (TUBSAT-30)    
1 60240U 24128F   25333.16173857  .00002999  00000+0  23858-3 0  9990
2 60240  61.9944 202.4399 0058776  91.4624 269.3200 15.01483622 76068
ROBUSTA-3A (MEDITERRAN*)
1 60243U 24128J   25333.20642267  .00008265  00000+0  52984-3 0  9998
2 60243  61.9863 193.5584 0056510  88.3723 272.3842 15.07919879 76224
LASARSAT                
1 62391U 24247Q   25333.25805557  .00024586  00000+0  74978-3 0  9995
2 62391  44.9779 294.9802 0003097   8.2370 351.8566 15.33568201 52494
CROCUBE                 
1 62394U 24247T   25333.27865151  .00026116  00000+0  78049-3 0  9990
2 62394  44.9767 294.2312 0004063  18.9090 341.1945 15.34175566 52508
